{
  "type": "FeatureCollection",
  "features": [
    {
      "type": "Feature",
      "properties": {
        "norad_id": 33986,
        "name": "COSMOS 2251 DEB",
        "group": "cosmos-2251-debris",
        "lat": -13.246359320852639,
        "lon": -79.15752861446336,
        "alt_km": 723.1213413099322,
        "timestamp": "2025-12-22T09:53:37.793412+00:00",
        "meta_object_name": "COSMOS 2251 DEB",
        "meta_object_id": "1993-036FV",
        "meta_epoch": "2025-12-22T03:36:40.253760",
        "meta_mean_motion": 14.43247027,
        "meta_eccentricity": 0.0040965,
        "meta_inclination": 74.037,
        "meta_ra_of_asc_node": 285.192,
        "meta_arg_of_pericenter": 355.904,
        "meta_mean_anomaly": 70.9338,
        "meta_ephemeris_type": 0,
        "meta_classification_type": "U",
        "meta_norad_cat_id": 33986,
        "meta_element_set_no": 999,
        "meta_rev_at_epoch": 88164,
        "meta_bstar": 0.00067255,
        "meta_mean_motion_dot": 2.26e-05,
        "meta_mean_motion_ddot": 0,
        "tle_line1": "1 33986U 93036FV  25356.15046590  .00002260  00000+0  67255-3 0  9998",
        "tle_line2": "2 33986  74.0370 285.1920 0040965 355.9040  70.9338 14.43247027881640"
      },
      "geometry": {
        "type": "Point",
        "coordinates": [
          -79.15752861446336,
          -13.246359320852639
        ]
      }
    },
    {
      "type": "Feature",
      "properties": {
        "norad_id": 33990,
        "name": "COSMOS 2251 DEB",
        "group": "cosmos-2251-debris",
        "lat": 36.850814848467344,
        "lon": -77.05661314145411,
        "alt_km": 1160.2397804431475,
        "timestamp": "2025-12-22T09:53:37.793422+00:00",
        "meta_object_name": "COSMOS 2251 DEB",
        "meta_object_id": "1993-036FZ",
        "meta_epoch": "2025-12-21T17:49:46.229088",
        "meta_mean_motion": 13.50008731,
        "meta_eccentricity": 0.0407394,
        "meta_inclination": 73.9284,
        "meta_ra_of_asc_node": 271.5402,
        "meta_arg_of_pericenter": 290.2292,
        "meta_mean_anomaly": 92.1827,
        "meta_ephemeris_type": 0,
        "meta_classification_type": "U",
        "meta_norad_cat_id": 33990,
        "meta_element_set_no": 999,
        "meta_rev_at_epoch": 82851,
        "meta_bstar": 0.00067434,
        "meta_mean_motion_dot": 6.94e-06,
        "meta_mean_motion_ddot": 0,
        "tle_line1": "1 33990U 93036FZ  25355.74289617  .00000694  00000+0  67434-3 0  9994",
        "tle_line2": "2 33990  73.9284 271.5402 0407394 290.2292  92.1827 13.50008731828514"
      },
      "geometry": {
        "type": "Point",
        "coordinates": [
          -77.05661314145411,
          36.850814848467344
        ]
      }
    },
    {
      "type": "Feature",
      "properties": {
        "norad_id": 33992,
        "name": "COSMOS 2251 DEB",
        "group": "cosmos-2251-debris",
        "lat": -69.88836402575616,
        "lon": -92.39547353299336,
        "alt_km": 711.9426485398944,
        "timestamp": "2025-12-22T09:53:37.793432+00:00",
        "meta_object_name": "COSMOS 2251 DEB",
        "meta_object_id": "1993-036GB",
        "meta_epoch": "2025-12-22T03:46:02.436960",
        "meta_mean_motion": 14.66284253,
        "meta_eccentricity": 0.0051791,
        "meta_inclination": 74.0246,
        "meta_ra_of_asc_node": 319.5708,
        "meta_arg_of_pericenter": 74.4991,
        "meta_mean_anomaly": 301.2589,
        "meta_ephemeris_type": 0,
        "meta_classification_type": "U",
        "meta_norad_cat_id": 33992,
        "meta_element_set_no": 999,
        "meta_rev_at_epoch": 89263,
        "meta_bstar": 0.00078894,
        "meta_mean_motion_dot": 4.409e-05,
        "meta_mean_motion_ddot": 0,
        "tle_line1": "1 33992U 93036GB  25356.15697265  .00004409  00000+0  78894-3 0  9994",
        "tle_line2": "2 33992  74.0246 319.5708 0051791  74.4991 301.2589 14.66284253892638"
      },
      "geometry": {
        "type": "Point",
        "coordinates": [
          -92.39547353299336,
          -69.88836402575616
        ]
      }
    },
    {
      "type": "Feature",
      "properties": {
        "norad_id": 33994,
        "name": "COSMOS 2251 DEB",
        "group": "cosmos-2251-debris",
        "lat": 42.44794781683995,
        "lon": -172.31672760112386,
        "alt_km": 753.4216685421443,
        "timestamp": "2025-12-22T09:53:37.793442+00:00",
        "meta_object_name": "COSMOS 2251 DEB",
        "meta_object_id": "1993-036GD",
        "meta_epoch": "2025-12-21T13:59:48.823008",
        "meta_mean_motion": 14.41219668,
        "meta_eccentricity": 0.0023912,
        "meta_inclination": 74.0415,
        "meta_ra_of_asc_node": 174.0444,
        "meta_arg_of_pericenter": 306.8662,
        "meta_mean_anomaly": 117.8883,
        "meta_ephemeris_type": 0,
        "meta_classification_type": "U",
        "meta_norad_cat_id": 33994,
        "meta_element_set_no": 999,
        "meta_rev_at_epoch": 88547,
        "meta_bstar": 7.1701e-05,
        "meta_mean_motion_dot": 2.06e-06,
        "meta_mean_motion_ddot": 0,
        "tle_line1": "1 33994U 93036GD  25355.58320397  .00000206  00000+0  71701-4 0  9993",
        "tle_line2": "2 33994  74.0415 174.0444 0023912 306.8662 117.8883 14.41219668885473"
      },
      "geometry": {
        "type": "Point",
        "coordinates": [
          -172.31672760112386,
          42.44794781683995
        ]
      }
    },
    {
      "type": "Feature",
      "properties": {
        "norad_id": 33995,
        "name": "COSMOS 2251 DEB",
        "group": "cosmos-2251-debris",
        "lat": -69.80531803522983,
        "lon": -27.360860260819848,
        "alt_km": 817.0039340772564,
        "timestamp": "2025-12-22T09:53:37.793452+00:00",
        "meta_object_name": "COSMOS 2251 DEB",
        "meta_object_id": "1993-036GE",
        "meta_epoch": "2025-12-22T00:20:08.810304",
        "meta_mean_motion": 14.34815652,
        "meta_eccentricity": 0.0059536,
        "meta_inclination": 74.0608,
        "meta_ra_of_asc_node": 102.3849,
        "meta_arg_of_pericenter": 114.1838,
        "meta_mean_anomaly": 246.5553,
        "meta_ephemeris_type": 0,
        "meta_classification_type": "U",
        "meta_norad_cat_id": 33995,
        "meta_element_set_no": 999,
        "meta_rev_at_epoch": 87652,
        "meta_bstar": 0.00072646,
        "meta_mean_motion_dot": 2.078e-05,
        "meta_mean_motion_ddot": 0,
        "tle_line1": "1 33995U 93036GE  25356.01399086  .00002078  00000+0  72646-3 0  9991",
        "tle_line2": "2 33995  74.0608 102.3849 0059536 114.1838 246.5553 14.34815652876524"
      },
      "geometry": {
        "type": "Point",
        "coordinates": [
          -27.360860260819848,
          -69.80531803522983
        ]
      }
    },
    {
      "type": "Feature",
      "properties": {
        "norad_id": 33999,
        "name": "COSMOS 2251 DEB",
        "group": "cosmos-2251-debris",
        "lat": -49.532118906299,
        "lon": -168.2819281609221,
        "alt_km": 653.1523507976754,
        "timestamp": "2025-12-22T09:53:37.793462+00:00",
        "meta_object_name": "COSMOS 2251 DEB",
        "meta_object_id": "1993-036GJ",
        "meta_epoch": "2025-12-22T00:25:12.269568",
        "meta_mean_motion": 14.8352981,
        "meta_eccentricity": 0.004438,
        "meta_inclination": 73.9171,
        "meta_ra_of_asc_node": 212.2714,
        "meta_arg_of_pericenter": 105.0198,
        "meta_mean_anomaly": 255.5898,
        "meta_ephemeris_type": 0,
        "meta_classification_type": "U",
        "meta_norad_cat_id": 33999,
        "meta_element_set_no": 999,
        "meta_rev_at_epoch": 89388,
        "meta_bstar": 0.0012227,
        "meta_mean_motion_dot": 0.00010221,
        "meta_mean_motion_ddot": 0,
        "tle_line1": "1 33999U 93036GJ  25356.01750312  .00010221  00000+0  12227-2 0  9995",
        "tle_line2": "2 33999  73.9171 212.2714 0044380 105.0198 255.5898 14.83529810893884"
      },
      "geometry": {
        "type": "Point",
        "coordinates": [
          -168.2819281609221,
          -49.532118906299
        ]
      }
    },
    {
      "type": "Feature",
      "properties": {
        "norad_id": 34001,
        "name": "COSMOS 2251 DEB",
        "group": "cosmos-2251-debris",
        "lat": 45.28999557185586,
        "lon": 66.99785230211454,
        "alt_km": 776.3153329897514,
        "timestamp": "2025-12-22T09:53:37.793472+00:00",
        "meta_object_name": "COSMOS 2251 DEB",
        "meta_object_id": "1993-036GL",
        "meta_epoch": "2025-12-22T03:10:27.983712",
        "meta_mean_motion": 14.37108968,
        "meta_eccentricity": 0.0020361,
        "meta_inclination": 74.0389,
        "meta_ra_of_asc_node": 264.317,
        "meta_arg_of_pericenter": 343.5337,
        "meta_mean_anomaly": 140.7195,
        "meta_ephemeris_type": 0,
        "meta_classification_type": "U",
        "meta_norad_cat_id": 34001,
        "meta_element_set_no": 999,
        "meta_rev_at_epoch": 88281,
        "meta_bstar": 0.00016406,
        "meta_mean_motion_dot": 4.62e-06,
        "meta_mean_motion_ddot": 0,
        "tle_line1": "1 34001U 93036GL  25356.13226833  .00000462  00000+0  16406-3 0  9999",
        "tle_line2": "2 34001  74.0389 264.3170 0020361 343.5337 140.7195 14.37108968882815"
      },
      "geometry": {
        "type": "Point",
        "coordinates": [
          66.99785230211454,
          45.28999557185586
        ]
      }
    }
  ]
}